{
  "generatedAtUtc": "2026-03-01T00:11:17.246Z",
  "provider": "oneweb",
  "sourceRootHint": "../tle_data",
  "sourceFile": "oneweb/json/oneweb_20260227.json",
  "sourceRecordCount": 651,
  "sampledRecordCount": 180,
  "records": [
    {
      "objectName": "ONEWEB-0677",
      "objectId": "2023-068D",
      "noradId": 56713,
      "epochUtc": "2026-02-27T04:30:31.503168",
      "meanMotionRevPerDay": 13.2077253,
      "eccentricity": 0.00016583,
      "inclinationDeg": 87.9183,
      "raanDeg": 296.3976,
      "argPerigeeDeg": 75.6345,
      "meanAnomalyDeg": 284.4972,
      "bstar": -0.00013290976,
      "meanMotionDot": -4.1e-7,
      "meanMotionDdot": 0,
      "elementSetNo": 999,
      "revAtEpoch": 13528
    },
    {
      "objectName": "ONEWEB-0681",
      "objectId": "2023-068H",
      "noradId": 56717,
      "epochUtc": "2026-02-27T02:08:29.580864",
      "meanMotionRevPerDay": 13.21824402,
      "eccentricity": 0.00007314,
      "inclinationDeg": 87.917,
      "raanDeg": 265.9304,
      "argPerigeeDeg": 63.2869,
      "meanAnomalyDeg": 296.834,
      "bstar": 0.000071453611,
      "meanMotionDot": 4.3e-7,
      "meanMotionDdot": 0,
      "elementSetNo": 999,
      "revAtEpoch": 13654
    },
    {
      "objectName": "ONEWEB-0684",
      "objectId": "2023-068L",
      "noradId": 56720,
      "epochUtc": "2026-02-27T03:51:05.973984",
      "meanMotionRevPerDay": 13.15547344,
      "eccentricity": 0.00021833,
      "inclinationDeg": 87.8959,
      "raanDeg": 281.1489,
      "argPerigeeDeg": 124.6188,
      "meanAnomalyDeg": 235.5148,
      "bstar": 0.00031375622,
      "meanMotionDot": 0.00000131,
      "meanMotionDdot": 0,
      "elementSetNo": 999,
      "revAtEpoch": 13478
    },
    {
      "objectName": "ONEWEB-0703",
      "objectId": "2023-068Q",
      "noradId": 56724,
      "epochUtc": "2026-02-27T03:03:10.682208",
      "meanMotionRevPerDay": 13.1554673,
      "eccentricity": 0.00010229,
      "inclinationDeg": 87.8944,
      "raanDeg": 281.1828,
      "argPerigeeDeg": 124.1814,
      "meanAnomalyDeg": 235.9414,
      "bstar": 0.00052934309,
      "meanMotionDot": 0.00000212,
      "meanMotionDdot": 0,
      "elementSetNo": 999,
      "revAtEpoch": 13478
    },
    {
      "objectName": "ONEWEB-0687",
      "objectId": "2024-188B",
      "noradId": 61595,
      "epochUtc": "2026-02-27T04:46:57.044640",
      "meanMotionRevPerDay": 13.17650122,
      "eccentricity": 0.00021873,
      "inclinationDeg": 87.9118,
      "raanDeg": 27.7286,
      "argPerigeeDeg": 69.5194,
      "meanAnomalyDeg": 290.6173,
      "bstar": 0.00029139036,
      "meanMotionDot": 0.00000126,
      "meanMotionDdot": 0,
      "elementSetNo": 999,
      "revAtEpoch": 7141
    },
    {
      "objectName": "ONEWEB-0691",
      "objectId": "2024-188F",
      "noradId": 61599,
      "epochUtc": "2026-02-27T04:13:20.255232",
      "meanMotionRevPerDay": 13.11414596,
      "eccentricity": 0.0001809,
      "inclinationDeg": 87.8857,
      "raanDeg": 42.8317,
      "argPerigeeDeg": 71.862,
      "meanAnomalyDeg": 288.2705,
      "bstar": 0.0016268353,
      "meanMotionDot": 0.00000589,
      "meanMotionDdot": 0,
      "elementSetNo": 999,
      "revAtEpoch": 7006
    },
    {
      "objectName": "ONEWEB-0697",
      "objectId": "2024-188K",
      "noradId": 61603,
      "epochUtc": "2026-02-27T04:54:49.812480",
      "meanMotionRevPerDay": 13.11414301,
      "eccentricity": 0.00025097,
      "inclinationDeg": 87.8839,
      "raanDeg": 42.9406,
      "argPerigeeDeg": 97.683,
      "meanAnomalyDeg": 262.4583,
      "bstar": -0.0012543655,
      "meanMotionDot": -0.00000432,
      "meanMotionDdot": 0,
      "elementSetNo": 999,
      "revAtEpoch": 7003
    },
    {
      "objectName": "ONEWEB-0700",
      "objectId": "2024-188N",
      "noradId": 61606,
      "epochUtc": "2026-02-27T06:17:48.391296",
      "meanMotionRevPerDay": 13.10375291,
      "eccentricity": 0.00025742,
      "inclinationDeg": 87.8782,
      "raanDeg": 58.0494,
      "argPerigeeDeg": 91.1893,
      "meanAnomalyDeg": 268.9529,
      "bstar": -0.0012291703,
      "meanMotionDot": -0.00000416,
      "meanMotionDdot": 0,
      "elementSetNo": 999,
      "revAtEpoch": 6890
    },
    {
      "objectName": "ONEWEB-0705",
      "objectId": "2024-188S",
      "noradId": 61610,
      "epochUtc": "2026-02-27T06:32:10.176000",
      "meanMotionRevPerDay": 13.10375587,
      "eccentricity": 0.00028114,
      "inclinationDeg": 87.8771,
      "raanDeg": 58.1425,
      "argPerigeeDeg": 72.7872,
      "meanAnomalyDeg": 287.3563,
      "bstar": 0.000083757815,
      "meanMotionDot": 4.2e-7,
      "meanMotionDdot": 0,
      "elementSetNo": 999,
      "revAtEpoch": 6106
    }
  ]
}
